$$SOE
2460154.500000000, A.D. 2023-Jul-29 00:00:00.0000, -4.623416383036033E+08, 3.170035186862856E+07, -1.007995848888909E+07,
2460161.500000000, A.D. 2023-Aug-05 00:00:00.0000, -4.641001413825898E+08, 2.329061794917290E+07, -1.115524026300787E+07,
2460168.500000000, A.D. 2023-Aug-12 00:00:00.0000, -4.656343580016382E+08, 1.486960248333040E+07, -1.222512823188886E+07,
2460175.500000000, A.D. 2023-Aug-19 00:00:00.0000, -4.669453032085888E+08, 6.441430388459656E+06, -1.328915109621477E+07,
2460182.500000000, A.D. 2023-Aug-26 00:00:00.0000, -4.680339952008163E+08, -1.989835462018210E+06, -1.434684518161300E+07,
2460189.500000000, A.D. 2023-Sep-02 00:00:00.0000, -4.689014545311139E+08, -1.042019003614217E+07, -1.539775390419571E+07,
2460196.500000000, A.D. 2023-Sep-09 00:00:00.0000, -4.695487034363436E+08, -1.884568217672031E+07, -1.644142726656527E+07,
2460203.500000000, A.D. 2023-Sep-16 00:00:00.0000, -4.699767651120637E+08, -2.726241092091888E+07, -1.747742140324178E+07,
2460210.500000000, A.D. 2023-Sep-23 00:00:00.0000, -4.701866625091373E+08, -3.566652181199031E+07, -1.850529818905659E+07,
2460217.500000000, A.D. 2023-Sep-30 00:00:00.0000, -4.701794169848372E+08, -4.405420200540689E+07, -1.952462478084350E+07,
2460224.500000000, A.D. 2023-Oct-07 00:00:00.0000, -4.699560491562936E+08, -5.242167470595849E+07, -2.053497291979503E+07,
2460231.500000000, A.D. 2023-Oct-14 00:00:00.0000, -4.695175809127512E+08, -6.076519624277774E+07, -2.153591835971151E+07,
2460238.500000000, A.D. 2023-Oct-21 00:00:00.0000, -4.688650353545603E+08, -6.908105417216530E+07, -2.252704058522477E+07,
2460245.500000000, A.D. 2023-Oct-28 00:00:00.0000, -4.679994360780515E+08, -7.736556414096795E+07, -2.350792250326727E+07,
2460252.500000000, A.D. 2023-Nov-04 00:00:00.0000, -4.669218070519576E+08, -8.561506627547218E+07, -2.447815005488831E+07,
2460259.500000000, A.D. 2023-Nov-11 00:00:00.0000, -4.656331729057142E+08, -9.382592169068286E+07, -2.543731181181407E+07,
2460266.500000000, A.D. 2023-Nov-18 00:00:00.0000, -4.641345594090059E+08, -1.019945091787515E+08, -2.638499858226843E+07,
2460273.500000000, A.D. 2023-Nov-25 00:00:00.0000, -4.624269940686561E+08, -1.101172220483051E+08, -2.732080302998475E+07,
2460280.500000000, A.D. 2023-Dec-02 00:00:00.0000, -4.605115068138281E+08, -1.181904651204676E+08, -2.824431930905984E+07,
2460287.500000000, A.D. 2023-Dec-09 00:00:00.0000, -4.583891306914120E+08, -1.262106519353543E+08, -2.915514272588193E+07,
2460294.500000000, A.D. 2023-Dec-16 00:00:00.0000, -4.560609022843809E+08, -1.341742021514202E+08, -3.005286945289195E+07,
2460301.500000000, A.D. 2023-Dec-23 00:00:00.0000, -4.535278615053449E+08, -1.420775384449986E+08, -3.093709626945782E+07,
2460308.500000000, A.D. 2023-Dec-30 00:00:00.0000, -4.507910521061823E+08, -1.499170818554465E+08, -3.180742012071565E+07,
2460315.500000000, A.D. 2024-Jan-06 00:00:00.0000, -4.478515246773236E+08, -1.576892479317074E+08, -3.266343752437870E+07,
2460322.500000000, A.D. 2024-Jan-13 00:00:00.0000, -4.447103389661388E+08, -1.653904454822154E+08, -3.350474426391805E+07,
2460329.500000000, A.D. 2024-Jan-20 00:00:00.0000, -4.413685642922105E+08, -1.730170748378629E+08, -3.433093522766628E+07,
2460336.500000000, A.D. 2024-Jan-27 00:00:00.0000, -4.378272800882429E+08, -1.805655249711840E+08, -3.514160415371822E+07,
2460343.500000000, A.D. 2024-Feb-03 00:00:00.0000, -4.340875769965611E+08, -1.880321704179246E+08, -3.593634331856891E+07,
2460350.500000000, A.D. 2024-Feb-10 00:00:00.0000, -4.301505582484925E+08, -1.954133682903785E+08, -3.671474321895632E+07,
2460357.500000000, A.D. 2024-Feb-17 00:00:00.0000, -4.260173411944988E+08, -2.027054553718463E+08, -3.747639225933033E+07,
2460364.500000000, A.D. 2024-Feb-24 00:00:00.0000, -4.216890589558890E+08, -2.099047452735550E+08, -3.822087644719093E+07,
2460371.500000000, A.D. 2024-Mar-02 00:00:00.0000, -4.171668621751057E+08, -2.170075256822709E+08, -3.894777910156959E+07,
2460378.500000000, A.D. 2024-Mar-09 00:00:00.0000, -4.124519207319526E+08, -2.240100557573432E+08, -3.965668059233016E+07,
2460385.500000000, A.D. 2024-Mar-16 00:00:00.0000, -4.075454250368715E+08, -2.309085634761113E+08, -4.034715813019095E+07,
2460392.500000000, A.D. 2024-Mar-23 00:00:00.0000, -4.024485870115841E+08, -2.376992418150029E+08, -4.101878550708471E+07,
2460399.500000000, A.D. 2024-Mar-30 00:00:00.0000, -3.971626430053005E+08, -2.443782437899262E+08, -4.167113258327332E+07,
2460406.500000000, A.D. 2024-Apr-06 00:00:00.0000, -3.916888583989845E+08, -2.509416797214458E+08, -4.230376481998727E+07,
2460413.500000000, A.D. 2024-Apr-13 00:00:00.0000, -3.860285303571934E+08, -2.573856158862002E+08, -4.291624311517225E+07,
2460420.500000000, A.D. 2024-Apr-20 00:00:00.0000, -3.801829896903428E+08, -2.637060718744829E+08, -4.350812363614681E+07,
2460427.500000000, A.D. 2024-Apr-27 00:00:00.0000, -3.741536033542644E+08, -2.698990172118426E+08, -4.407895755553360E+07,
2460434.500000000, A.D. 2024-May-04 00:00:00.0000, -3.679417775094265E+08, -2.759603679458436E+08, -4.462829075577714E+07,
2460441.500000000, A.D. 2024-May-11 00:00:00.0000, -3.615489609133748E+08, -2.818859832988758E+08, -4.515566353247091E+07,
2460448.500000000, A.D. 2024-May-18 00:00:00.0000, -3.549766485782297E+08, -2.876716623651923E+08, -4.566061030247645E+07,
2460455.500000000, A.D. 2024-May-25 00:00:00.0000, -3.482263856839406E+08, -2.933131408594373E+08, -4.614265931999697E+07,
2460462.500000000, A.D. 2024-Jun-01 00:00:00.0000, -3.412997717043025E+08, -2.988060879746346E+08, -4.660133241120164E+07,
2460469.500000000, A.D. 2024-Jun-08 00:00:00.0000, -3.341984645176991E+08, -3.041461033736016E+08, -4.703614475240541E+07,
2460476.500000000, A.D. 2024-Jun-15 00:00:00.0000, -3.269241841228034E+08, -3.093287137700995E+08, -4.744660468451823E+07,
2460483.500000000, A.D. 2024-Jun-22 00:00:00.0000, -3.194787169852172E+08, -3.143493679262750E+08, -4.783221337615597E+07,
2460490.500000000, A.D. 2024-Jun-29 00:00:00.0000, -3.118639231582776E+08, -3.192034318900179E+08, -4.819246429040107E+07,
2460497.500000000, A.D. 2024-Jul-06 00:00:00.0000, -3.040817435569537E+08, -3.238861869485499E+08, -4.852684290105484E+07,
2460504.500000000, A.D. 2024-Jul-13 00:00:00.0000, -2.961342054624583E+08, -3.283928274806537E+08, -4.883482660796896E+07,
2460511.500000000, A.D. 2024-Jul-20 00:00:00.0000, -2.880234282714772E+08, -3.327184575654809E+08, -4.911588457698469E+07,
2460518.500000000, A.D. 2024-Jul-27 00:00:00.0000, -2.797516301751869E+08, -3.368580873152455E+08, -4.936947752441737E+07,
2460525.500000000, A.D. 2024-Aug-03 00:00:00.0000, -2.713211355259641E+08, -3.408066293170934E+08, -4.959505750394414E+07,
2460532.500000000, A.D. 2024-Aug-10 00:00:00.0000, -2.627343827594558E+08, -3.445588952020531E+08, -4.979206771433622E+07,
2460539.500000000, A.D. 2024-Aug-17 00:00:00.0000, -2.539939328614316E+08, -3.481095923357781E+08, -4.995994233410542E+07,
2460546.500000000, A.D. 2024-Aug-24 00:00:00.0000, -2.451024783916250E+08, -3.514533206724018E+08, -5.009810639143017E+07,
2460553.500000000, A.D. 2024-Aug-31 00:00:00.0000, -2.360628529920161E+08, -3.545845698547712E+08, -5.020597568937328E+07,
2460560.500000000, A.D. 2024-Sep-07 00:00:00.0000, -2.268780410600976E+08, -3.574977164593858E+08, -5.028295681432012E+07,
2460567.500000000, A.D. 2024-Sep-14 00:00:00.0000, -2.175511875505401E+08, -3.601870204177258E+08, -5.032844715898308E+07,
2460574.500000000, A.D. 2024-Sep-21 00:00:00.0000, -2.080856099841665E+08, -3.626466202320975E+08, -5.034183474517016E+07,
2460581.500000000, A.D. 2024-Sep-28 00:00:00.0000, -1.984848132025271E+08, -3.648705302502217E+08, -5.032249807102099E+07,
2460588.500000000, A.D. 2024-Oct-05 00:00:00.0000, -1.887525032521001E+08, -3.668526400431584E+08, -5.026980632637882E+07,
2460595.500000000, A.D. 2024-Oct-12 00:00:00.0000, -1.788926008174742E+08, -3.685867129621901E+08, -5.018311970853646E+07,
2460602.500000000, A.D. 2024-Oct-19 00:00:00.0000, -1.689092560180751E+08, -3.700663842092574E+08, -5.006178971005072E+07,
2460609.500000000, A.D. 2024-Oct-26 00:00:00.0000, -1.588068646685904E+08, -3.712851592940031E+08, -4.990515945233513E+07,
2460616.500000000, A.D. 2024-Nov-02 00:00:00.0000, -1.485900858161152E+08, -3.722364131061128E+08, -4.971256411284782E+07,
2460623.500000000, A.D. 2024-Nov-09 00:00:00.0000, -1.382638605291023E+08, -3.729133896734574E+08, -4.948333146633649E+07,
2460630.500000000, A.D. 2024-Nov-16 00:00:00.0000, -1.278334319852537E+08, -3.733092027105304E+08, -4.921678255743061E+07,
2460637.500000000, A.D. 2024-Nov-23 00:00:00.0000, -1.173043668859361E+08, -3.734168371269668E+08, -4.891223252972645E+07,
2460644.500000000, A.D. 2024-Nov-30 00:00:00.0000, -1.066825780639483E+08, -3.732291516751795E+08, -4.856899165265009E+07,
2460651.500000000, A.D. 2024-Dec-07 00:00:00.0000, -9.597434793964662E+07, -3.727388824713131E+08, -4.818636657104969E+07,
2460658.500000000, A.D. 2024-Dec-14 00:00:00.0000, -8.518635358639309E+07, -3.719386463406965E+08, -4.776366163753192E+07,
2460665.500000000, A.D. 2024-Dec-21 00:00:00.0000, -7.432569579166301E+07, -3.708209454257923E+08, -4.730018024200693E+07,
2460672.500000000, A.D. 2024-Dec-28 00:00:00.0000, -6.339993020195519E+07, -3.693781762477325E+08, -4.679522659077971E+07,
2460679.500000000, A.D. 2025-Jan-04 00:00:00.0000, -5.241709800665306E+07, -3.676026411001804E+08, -4.624810801178639E+07,
2460686.500000000, A.D. 2025-Jan-11 00:00:00.0000, -4.138575802327772E+07, -3.654865604021144E+08, -4.565813751917109E+07,
2460693.500000000, A.D. 2025-Jan-18 00:00:00.0000, -3.031502112564791E+07, -3.630220872479281E+08, -4.502463666745281E+07,
2460700.500000000, A.D. 2025-Jan-25 00:00:00.0000, -1.921458677419709E+07, -3.602013249857347E+08, -4.434693879940128E+07,
2460707.500000000, A.D. 2025-Feb-01 00:00:00.0000, -8.094781433630287E+06, -3.570163482498228E+08, -4.362439275436237E+07,
2460714.500000000, A.D. 2025-Feb-08 00:00:00.0000, 3.033401242063339E+06, -3.534592278657226E+08, -4.285636709184437E+07,
$$EOE